{"type": "FeatureCollection", "features": [{"type": "Feature", "properties": {"CUSEC": "1715501001", "CDIS": "01", "CSEC": "001", "codi": "01-001", "ist_2023": 80.6, "ist_2024p": 79.7, "serie": {"2015": 87.1, "2016": 86.5, "2017": 85.1, "2018": 84.7, "2019": 86.0, "2020": 85.4, "2021": 84.8, "2022": 81.0, "2023": 80.6, "2024": 79.7}, "lx": 2.773965, "ly": 41.976539, "dist_cap_centroide_m": 1300}, "geometry": {"type": "Polygon", "coordinates": [[[2.7848905480726374, 41.973458410819454], [2.7847567313495696, 41.97342048862027], [2.784586673867943, 41.973374428959055], [2.784569753342377, 41.97336982479133], [2.7842084860544305, 41.97327185605725], [2.7838584713939336, 41.97316861383169], [2.783820601246811, 41.97315747640514], [2.7836184099873393, 41.973097808499], [2.7835663620340596, 41.97308239162609], [2.783103771235347, 41.97294625646941], [2.78277124636812, 41.972848338123406], [2.7820945861356323, 41.97264767149186], [2.781623833027628, 41.97250807191289], [2.781219975980177, 41.97238121709234], [2.781204265432728, 41.97238309565306], [2.7810738185951087, 41.97234470622406], [2.780929001218928, 41.97230853704622], [2.7806832150062415, 41.97224052171056], [2.7804374765288107, 41.97218006051337], [2.7802040582977043, 41.97213645803891], [2.7799616125545885, 41.97209870776415], [2.7797186335326427, 41.97206978325768], [2.779307327314226, 41.97202188888917], [2.779223978801646, 41.972011921861736], [2.778938536731834, 41.971979703380605], [2.778765174741376, 41.97196222529422], [2.7787520434918593, 41.971960954006946], [2.778619910619899, 41.97194152296108], [2.778448383547751, 41.971916210084814], [2.7784095159516946, 41.97190875347382], [2.778365749517715, 41.97190041812096], [2.7783239121992462, 41.97189239131019], [2.778268419748091, 41.97188171890298], [2.778221052394324, 41.97187046869779], [2.778181593099851, 41.97186114249023], [2.7781349218577347, 41.97185017216016], [2.777986480677841, 41.971814915858246], [2.777739436079566, 41.971742200137115], [2.7774732643285076, 41.9716555740765], [2.7769377705796128, 41.971438771302715], [2.7765339797516755, 41.971280349129366], [2.776219682469695, 41.97117131896745], [2.7759054674549097, 41.97106504735312], [2.7757537692132632, 41.971012070244825], [2.7755945386310437, 41.97095635849856], [2.775563329552776, 41.970945416754404], [2.7754180409629288, 41.97090638815268], [2.7751930984847974, 41.970861384243754], [2.774994069673179, 41.970822264449694], [2.7747612758745395, 41.97077865517383], [2.774361099401925, 41.97070949913889], [2.77417977628434, 41.97067746361851], [2.774054598552785, 41.970655336616105], [2.7735531020904145, 41.970568134323024], [2.772851293462825, 41.97044649795137], [2.7728161503610913, 41.97064531376707], [2.772485866405489, 41.97061283528685], [2.771934564327478, 41.9705586199273], [2.7679461884787915, 41.97016631908961], [2.7646981933014247, 41.96984844340782], [2.76402107073472, 41.96996357314582], [2.762813560821258, 41.97048352145428], [2.7603314870112863, 41.97091458646958], [2.7586808146986117, 41.971069732038195], [2.757313351733503, 41.97102150534829], [2.755998654020549, 41.970889652466276], [2.754008638606788, 41.9703595950545], [2.7537247381326586, 41.9706889403863], [2.756719252357288, 41.97194710695126], [2.757536482031853, 41.972288565992486], [2.7608920394470036, 41.97324488451652], [2.7621040558293415, 41.97384096902495], [2.7629863289537675, 41.9745256423925], [2.763251116937133, 41.975052457177654], [2.7647682650390717, 41.976353265140965], [2.7657382018522725, 41.977339626704605], [2.7663576497542506, 41.979117757858376], [2.769016222928621, 41.981297193807826], [2.7697501372549014, 41.98167428396333], [2.7713180825884285, 41.98180222116123], [2.772807249024337, 41.982258181926596], [2.7749141766443923, 41.98247592000961], [2.7767106857820987, 41.98339339002212], [2.7826183402103264, 41.98408421649514], [2.782685414848764, 41.98409205796842], [2.7832736644010545, 41.98193468294704], [2.783554129706698, 41.979363967733704], [2.783721043227302, 41.97831054960894], [2.7838808083341666, 41.977302222154016], [2.7842363637752747, 41.975558582954676], [2.7842762681586932, 41.97550925253586], [2.7843195988990015, 41.975200200206714], [2.784321113646126, 41.97518939337852], [2.7843763393013905, 41.9748352658513], [2.7844156947888483, 41.97483471555267], [2.7844787203438317, 41.97483232129956], [2.78456088849529, 41.9745572309795], [2.7846007936390986, 41.97442127887694], [2.7846916231734524, 41.97411975762199], [2.784735437659149, 41.97396563105947], [2.7848308020153403, 41.973649828485904], [2.7848905480726374, 41.973458410819454]]]}}, {"type": "Feature", "properties": {"CUSEC": "1715501002", "CDIS": "01", "CSEC": "002", "codi": "01-002", "ist_2023": 70.9, "ist_2024p": 72.7, "serie": {"2015": 78.7, "2016": 78.1, "2017": 79.2, "2018": 78.7, "2019": 78.7, "2020": 76.5, "2021": 76.5, "2022": 73.3, "2023": 70.9, "2024": 72.7}, "lx": 2.787453, "ly": 41.97802, "dist_cap_centroide_m": 678}, "geometry": {"type": "Polygon", "coordinates": [[[2.792376147402436, 41.97529426383935], [2.792088339855649, 41.97525969140689], [2.7917877419742947, 41.97521591406674], [2.79177399343408, 41.97521390048387], [2.791509778207197, 41.9751754947318], [2.7913910692013277, 41.97515978307209], [2.790689736770965, 41.97506707136321], [2.7900714583166986, 41.97497536249379], [2.7898401006559173, 41.97493012742523], [2.7889545052322324, 41.97467072110309], [2.788686397256393, 41.974585911971936], [2.7884110868691128, 41.974508272007384], [2.788208446415642, 41.97445112412123], [2.7879578098808215, 41.974375628485134], [2.787712995740968, 41.974301885683815], [2.7876527518081886, 41.974284099228605], [2.787260990038145, 41.974169008501136], [2.7871381349224316, 41.9741329336812], [2.7868224104070975, 41.97403841654942], [2.7864688915975693, 41.97393261412991], [2.786109873440372, 41.973813798329374], [2.7858300866704373, 41.97373035164918], [2.785446101068843, 41.9736156670123], [2.7851382375645914, 41.97352855317065], [2.7848905480726374, 41.973458410819454], [2.7848308020153403, 41.973649828485904], [2.784735437659149, 41.97396563105947], [2.7846916231734524, 41.97411975762199], [2.7846007936390986, 41.97442127887694], [2.78456088849529, 41.9745572309795], [2.7844787203438317, 41.97483232129956], [2.7844156947888483, 41.97483471555267], [2.7843763393013905, 41.9748352658513], [2.784321113646126, 41.97518939337852], [2.7843195988990015, 41.975200200206714], [2.7842762681586932, 41.97550925253586], [2.7842363637752747, 41.975558582954676], [2.7838808083341666, 41.977302222154016], [2.783721043227302, 41.97831054960894], [2.783554129706698, 41.979363967733704], [2.7832736644010545, 41.98193468294704], [2.782685414848764, 41.98409205796842], [2.783429858613237, 41.98417908759746], [2.7836716739079543, 41.98427603658895], [2.786370899895752, 41.98535812162582], [2.787871727788876, 41.98538800614595], [2.7879196226505565, 41.98506561492147], [2.7879387936118363, 41.984855050684295], [2.7880113939606255, 41.98467036439644], [2.788009452251672, 41.9845085035035], [2.7880566304277976, 41.98432510421507], [2.7881292299919607, 41.984140417902736], [2.7880036286609475, 41.984022920746604], [2.7878797527181094, 41.983924390439746], [2.7878355880726184, 41.98385993606522], [2.7878407540486476, 41.983354743054065], [2.787905813158855, 41.98322760029324], [2.7879631156393825, 41.983015107898815], [2.7879661280700088, 41.98276725256634], [2.787852380678568, 41.98263962972822], [2.788553267556104, 41.98185153592804], [2.788885339960734, 41.98150128936329], [2.789098607799525, 41.98131901249274], [2.78916118604968, 41.98123486604108], [2.789396753154055, 41.98122770984459], [2.7897035191449, 41.981231240643574], [2.790076310312558, 41.98118855687494], [2.7903316923045, 41.9811184702361], [2.7905222313922504, 41.98103737440919], [2.790762636148149, 41.98087277439366], [2.7912111251553235, 41.98046899361397], [2.79135979184321, 41.98035465294655], [2.79146897790808, 41.980355907972566], [2.7919937171703384, 41.97994826435943], [2.7922806002226612, 41.97917157989182], [2.7923404315746736, 41.978425445274446], [2.7924360305214044, 41.97779182267581], [2.7925656691735385, 41.97725174703044], [2.7927483408056584, 41.97690508204638], [2.792688161991151, 41.97689990213306], [2.7921767487777243, 41.97678107636334], [2.7920168516015775, 41.97674090945382], [2.792067100771102, 41.97653573703691], [2.792140838746786, 41.97623601164359], [2.7921844151568145, 41.976062075924915], [2.7921970037830572, 41.976011406203895], [2.7922573900615335, 41.97576915940878], [2.792376147402436, 41.97529426383935]]]}}, {"type": "Feature", "properties": {"CUSEC": "1715501003", "CDIS": "01", "CSEC": "003", "codi": "01-003", "ist_2023": 32.5, "ist_2024p": 32.7, "serie": {"2015": 30.5, "2016": 33.0, "2017": 34.3, "2018": 34.5, "2019": 32.5, "2020": 33.5, "2021": 33.1, "2022": 32.2, "2023": 32.5, "2024": 32.7}, "lx": 2.78796, "ly": 41.973156, "dist_cap_centroide_m": 345}, "geometry": {"type": "Polygon", "coordinates": [[[2.7900292639985804, 41.97232950134633], [2.7899106851305953, 41.97230911851534], [2.789705245510503, 41.97227386882452], [2.789239513699618, 41.97219510753078], [2.788864714247108, 41.97213173941209], [2.788522280977419, 41.97206951863329], [2.7883926165840993, 41.972045955673465], [2.7881017773620775, 41.97199336052415], [2.7878205011630484, 41.97194238820258], [2.787660597237471, 41.971913386660354], [2.787642489273964, 41.971910116781736], [2.787475391439296, 41.971880812742405], [2.787248508124079, 41.97184146269039], [2.786715598334615, 41.971748958343554], [2.7863492317558864, 41.97168534529029], [2.7855314423677324, 41.971543233626434], [2.78549512943309, 41.97161204835539], [2.785488900423085, 41.97162375521656], [2.7852232912925494, 41.97212627521244], [2.785149811034921, 41.97226654562263], [2.784991305561293, 41.9725687983712], [2.7849525831297703, 41.97264184412954], [2.7848511191043808, 41.972833346593255], [2.784790259633618, 41.972949416238365], [2.784569753342377, 41.97336982479133], [2.784586673867943, 41.973374428959055], [2.7847567313495696, 41.97342048862027], [2.7848905480726374, 41.973458410819454], [2.7851382375645914, 41.97352855317065], [2.785446101068843, 41.9736156670123], [2.7858300866704373, 41.97373035164918], [2.786109873440372, 41.973813798329374], [2.7864688915975693, 41.97393261412991], [2.7868224104070975, 41.97403841654942], [2.7871381349224316, 41.9741329336812], [2.787260990038145, 41.974169008501136], [2.7876527518081886, 41.974284099228605], [2.787712995740968, 41.974301885683815], [2.7879578098808215, 41.974375628485134], [2.788208446415642, 41.97445112412123], [2.7884110868691128, 41.974508272007384], [2.7885823895233735, 41.97428093792783], [2.7887016685394705, 41.97412249137218], [2.788817234892527, 41.97396904764837], [2.788924833991067, 41.97381775329557], [2.7889258182427374, 41.97381716788384], [2.788951317778432, 41.97380739791679], [2.7891158429977034, 41.97358031237476], [2.7891830482419944, 41.97348550590759], [2.7892971347042863, 41.97332457502601], [2.7894546119224923, 41.97311347741016], [2.7895648457158617, 41.972958218867554], [2.7895893316031257, 41.972923758395936], [2.7896739296177135, 41.97280889663804], [2.7897581979544173, 41.972696635942505], [2.7898166006104477, 41.97261886502618], [2.7900292639985804, 41.97232950134633]]]}}, {"type": "Feature", "properties": {"CUSEC": "1715501004", "CDIS": "01", "CSEC": "004", "codi": "01-004", "ist_2023": 73.4, "ist_2024p": 73.8, "serie": {"2015": 79.8, "2016": 79.6, "2017": 78.2, "2018": 78.5, "2019": 77.3, "2020": 75.5, "2021": 74.0, "2022": 74.7, "2023": 73.4, "2024": 73.8}, "lx": 2.7913, "ly": 41.971568, "dist_cap_centroide_m": 322}, "geometry": {"type": "Polygon", "coordinates": [[[2.792851324757777, 41.96927441461793], [2.7911730213666495, 41.96907406210483], [2.7910115743906245, 41.96959135997292], [2.790954565870587, 41.96977379320395], [2.790838981472115, 41.97013667299018], [2.79071840296288, 41.97050760646136], [2.7906574411241545, 41.970708526957985], [2.7905971794128788, 41.97090681495125], [2.790412337781648, 41.97087391681322], [2.7901275716380605, 41.97082391446071], [2.789900925049074, 41.9707841571223], [2.7896822715555, 41.97074474561111], [2.789588286721748, 41.970727839360535], [2.789464519761218, 41.970706360172336], [2.7892973277387183, 41.97067732010781], [2.7889981783876854, 41.97062533761958], [2.7888978241586555, 41.970608145437616], [2.7886319703128337, 41.97056262315366], [2.78848433951864, 41.970537111151096], [2.788382419480625, 41.97051955663614], [2.787955526080941, 41.9704471697537], [2.7876980313973614, 41.97040500318591], [2.7876655608264462, 41.970399714269604], [2.7875373442230713, 41.970378768615696], [2.7867162282548756, 41.9702447462504], [2.786624279451962, 41.97060205620612], [2.7865994283895046, 41.97070109601232], [2.7865681279258463, 41.97082587070802], [2.7865060121840894, 41.97107352674895], [2.7864713047023604, 41.97120873947875], [2.7863904586289365, 41.9715237685358], [2.7863492317558864, 41.97168534529029], [2.786715598334615, 41.971748958343554], [2.787248508124079, 41.97184146269039], [2.787475391439296, 41.971880812742405], [2.787642489273964, 41.971910116781736], [2.787660597237471, 41.971913386660354], [2.7878205011630484, 41.97194238820258], [2.7881017773620775, 41.97199336052415], [2.7883926165840993, 41.972045955673465], [2.788522280977419, 41.97206951863329], [2.788864714247108, 41.97213173941209], [2.789239513699618, 41.97219510753078], [2.789705245510503, 41.97227386882452], [2.7899106851305953, 41.97230911851534], [2.7900292639985804, 41.97232950134633], [2.790152051262993, 41.97235071529461], [2.79083201067503, 41.97246787680721], [2.790965672162926, 41.97249106901485], [2.7910168062811476, 41.97249996186603], [2.7915791658511306, 41.97259781366135], [2.7917724057411704, 41.97263034321369], [2.79199101031875, 41.9726674846136], [2.7920235550867396, 41.972673042175956], [2.792851324757777, 41.96927441461793]]]}}, {"type": "Feature", "properties": {"CUSEC": "1715501005", "CDIS": "01", "CSEC": "005", "codi": "01-005", "ist_2023": 40.7, "ist_2024p": 40.6, "serie": {"2015": 40.4, "2016": 40.1, "2017": 37.9, "2018": 36.9, "2019": 35.9, "2020": 39.2, "2021": 39.1, "2022": 37.9, "2023": 40.7, "2024": 40.6}, "lx": 2.789736, "ly": 41.974074, "dist_cap_centroide_m": 189}, "geometry": {"type": "Polygon", "coordinates": [[[2.7925225676255927, 41.974503067736954], [2.7924790448280734, 41.97449095014709], [2.7923091598149306, 41.97446883840211], [2.7917794834656133, 41.974400269978915], [2.7915811548744527, 41.974374047351255], [2.7914374893310465, 41.97435497746482], [2.7911816619166263, 41.974301707315895], [2.7907681590686484, 41.97421199018142], [2.7905225274719383, 41.97415919719899], [2.790730514423973, 41.97347677152743], [2.7907645957386187, 41.97334730456711], [2.790810442005359, 41.97317249831566], [2.790875450067181, 41.97296060667627], [2.7910168062811476, 41.97249996186603], [2.790965672162926, 41.97249106901485], [2.79083201067503, 41.97246787680721], [2.790152051262993, 41.97235071529461], [2.7900292639985804, 41.97232950134633], [2.7898166006104477, 41.97261886502618], [2.7897581979544173, 41.972696635942505], [2.7896739296177135, 41.97280889663804], [2.7895893316031257, 41.972923758395936], [2.7895648457158617, 41.972958218867554], [2.7894546119224923, 41.97311347741016], [2.7892971347042863, 41.97332457502601], [2.7891830482419944, 41.97348550590759], [2.7891158429977034, 41.97358031237476], [2.788951317778432, 41.97380739791679], [2.7889258182427374, 41.97381716788384], [2.788924833991067, 41.97381775329557], [2.788817234892527, 41.97396904764837], [2.7887016685394705, 41.97412249137218], [2.7885823895233735, 41.97428093792783], [2.7884110868691128, 41.974508272007384], [2.788686397256393, 41.974585911971936], [2.7889545052322324, 41.97467072110309], [2.7898401006559173, 41.97493012742523], [2.7900714583166986, 41.97497536249379], [2.790689736770965, 41.97506707136321], [2.7913910692013277, 41.97515978307209], [2.791509778207197, 41.9751754947318], [2.79177399343408, 41.97521390048387], [2.7917877419742947, 41.97521591406674], [2.792088339855649, 41.97525969140689], [2.792376147402436, 41.97529426383935], [2.79237323643225, 41.975214974189], [2.79239931074299, 41.975105342680166], [2.792405425404067, 41.97507938677432], [2.7924516734326517, 41.97488457539925], [2.792458038805192, 41.97477940832376], [2.7925225676255927, 41.974503067736954]]]}}, {"type": "Feature", "properties": {"CUSEC": "1715501006", "CDIS": "01", "CSEC": "006", "codi": "01-006", "ist_2023": 36.2, "ist_2024p": 37.2, "serie": {"2015": 37.6, "2016": 37.4, "2017": 36.7, "2018": 35.6, "2019": 36.1, "2020": 37.7, "2021": 36.7, "2022": 36.4, "2023": 36.2, "2024": 37.2}, "lx": 2.791633, "ly": 41.973496, "dist_cap_centroide_m": 127}, "geometry": {"type": "Polygon", "coordinates": [[[2.792915885114465, 41.97282655840276], [2.7924189651016142, 41.972740184939966], [2.7920235550867396, 41.972673042175956], [2.79199101031875, 41.9726674846136], [2.7917724057411704, 41.97263034321369], [2.7915791658511306, 41.97259781366135], [2.7910168062811476, 41.97249996186603], [2.790875450067181, 41.97296060667627], [2.790810442005359, 41.97317249831566], [2.7907645957386187, 41.97334730456711], [2.790730514423973, 41.97347677152743], [2.7905225274719383, 41.97415919719899], [2.7907681590686484, 41.97421199018142], [2.7911816619166263, 41.974301707315895], [2.7914374893310465, 41.97435497746482], [2.7915811548744527, 41.974374047351255], [2.7917794834656133, 41.974400269978915], [2.7923091598149306, 41.97446883840211], [2.7924790448280734, 41.97449095014709], [2.7925225676255927, 41.974503067736954], [2.7926364880320746, 41.97404997271713], [2.7927102937918904, 41.97373173573991], [2.792730487580978, 41.973643863263455], [2.7927500955034232, 41.97355896765961], [2.792770901529886, 41.97346695032402], [2.792884653012931, 41.9729642129275], [2.792915885114465, 41.97282655840276]]]}}, {"type": "Feature", "properties": {"CUSEC": "1715501008", "CDIS": "01", "CSEC": "008", "codi": "01-008", "ist_2023": 81.6, "ist_2024p": 82.4, "serie": {"2015": 84.9, "2016": 84.9, "2017": 85.4, "2018": 86.2, "2019": 85.2, "2020": 83.9, "2021": 81.9, "2022": 81.7, "2023": 81.6, "2024": 82.4}, "lx": 2.780308, "ly": 41.968418, "dist_cap_centroide_m": 507}, "geometry": {"type": "Polygon", "coordinates": [[[2.7775005464781297, 41.96347086472235], [2.777359650671578, 41.96371527898398], [2.77731825725339, 41.96393458573434], [2.7775178568935908, 41.96419316880581], [2.777725693006823, 41.96440179635925], [2.777853485981231, 41.964684963887535], [2.7779474957296943, 41.96504605452142], [2.7778692263546616, 41.965309142769044], [2.7771832889281214, 41.966304103330984], [2.776848177917759, 41.96711367189936], [2.7766144217256707, 41.96768947337046], [2.776207776945728, 41.96771000306028], [2.7756409267945568, 41.96754045686341], [2.7752136537189664, 41.96733337510291], [2.774635810264174, 41.967042431746556], [2.77411621706761, 41.96671805995058], [2.773842276753277, 41.96662518091761], [2.7735878727444816, 41.96697337005715], [2.7732521365330562, 41.9673256634237], [2.7731820923787738, 41.96767979211281], [2.7730532539669874, 41.968436286485975], [2.772976735661543, 41.96895465200771], [2.772708335953198, 41.96894515627634], [2.7724222889733063, 41.9703879156713], [2.7725698520478987, 41.97042654532804], [2.7724955950030132, 41.9705723571018], [2.772485866405489, 41.97061283528685], [2.7728161503610913, 41.97064531376707], [2.772851293462825, 41.97044649795137], [2.7735531020904145, 41.970568134323024], [2.774054598552785, 41.970655336616105], [2.77417977628434, 41.97067746361851], [2.774361099401925, 41.97070949913889], [2.7747612758745395, 41.97077865517383], [2.774994069673179, 41.970822264449694], [2.7751930984847974, 41.970861384243754], [2.7754180409629288, 41.97090638815268], [2.775563329552776, 41.970945416754404], [2.7755945386310437, 41.97095635849856], [2.7757537692132632, 41.971012070244825], [2.7759054674549097, 41.97106504735312], [2.776219682469695, 41.97117131896745], [2.7765339797516755, 41.971280349129366], [2.7769377705796128, 41.971438771302715], [2.7774732643285076, 41.9716555740765], [2.777739436079566, 41.971742200137115], [2.777986480677841, 41.971814915858246], [2.7781349218577347, 41.97185017216016], [2.778181593099851, 41.97186114249023], [2.778221052394324, 41.97187046869779], [2.778268419748091, 41.97188171890298], [2.7783239121992462, 41.97189239131019], [2.778365749517715, 41.97190041812096], [2.7784095159516946, 41.97190875347382], [2.778448383547751, 41.971916210084814], [2.778619910619899, 41.97194152296108], [2.7787520434918593, 41.971960954006946], [2.778765174741376, 41.97196222529422], [2.778938536731834, 41.971979703380605], [2.779223978801646, 41.972011921861736], [2.779307327314226, 41.97202188888917], [2.7797186335326427, 41.97206978325768], [2.7799616125545885, 41.97209870776415], [2.7802040582977043, 41.97213645803891], [2.7804374765288107, 41.97218006051337], [2.7806832150062415, 41.97224052171056], [2.780929001218928, 41.97230853704622], [2.7810738185951087, 41.97234470622406], [2.781204265432728, 41.97238309565306], [2.781219975980177, 41.97238121709234], [2.781623833027628, 41.97250807191289], [2.7820945861356323, 41.97264767149186], [2.78277124636812, 41.972848338123406], [2.783103771235347, 41.97294625646941], [2.7835663620340596, 41.97308239162609], [2.7836184099873393, 41.973097808499], [2.783820601246811, 41.97315747640514], [2.7838584713939336, 41.97316861383169], [2.7842084860544305, 41.97327185605725], [2.784569753342377, 41.97336982479133], [2.784790259633618, 41.972949416238365], [2.7848511191043808, 41.972833346593255], [2.7849525831297703, 41.97264184412954], [2.784991305561293, 41.9725687983712], [2.785149811034921, 41.97226654562263], [2.7852232912925494, 41.97212627521244], [2.785488900423085, 41.97162375521656], [2.78549512943309, 41.97161204835539], [2.7855314423677324, 41.971543233626434], [2.7863492317558864, 41.97168534529029], [2.7863904586289365, 41.9715237685358], [2.7864713047023604, 41.97120873947875], [2.7865060121840894, 41.97107352674895], [2.7865681279258463, 41.97082587070802], [2.7865994283895046, 41.97070109601232], [2.786624279451962, 41.97060205620612], [2.7867162282548756, 41.9702447462504], [2.786763539073633, 41.97006066753757], [2.786799509255829, 41.96991738729632], [2.7868162580423315, 41.96985100198666], [2.7869056695135215, 41.96949512550787], [2.78698435502299, 41.96915767911639], [2.7871242482440306, 41.968590647681566], [2.787135926399443, 41.96854326522246], [2.7871455609254427, 41.968505721663796], [2.787159164213806, 41.968450463303796], [2.7872302671875127, 41.96816122279139], [2.7874157140146383, 41.9674041697908], [2.7874964228962553, 41.967075088829816], [2.787327715112943, 41.96681322666033], [2.7829739961198277, 41.965364055276], [2.7829445347981956, 41.96541664624889], [2.77979318291913, 41.964333674835984], [2.7777532871166635, 41.963635575743005], [2.7775005464781297, 41.96347086472235]]]}}, {"type": "Feature", "properties": {"CUSEC": "1715501009", "CDIS": "01", "CSEC": "009", "codi": "01-009", "ist_2023": 99.9, "ist_2024p": 101.3, "serie": {"2015": 106.1, "2016": 106.2, "2017": 106.6, "2018": 104.6, "2019": 102.0, "2020": 103.3, "2021": 102.9, "2022": 100.8, "2023": 99.9, "2024": 101.3}, "lx": 2.791012, "ly": 41.964349, "dist_cap_centroide_m": 787}, "geometry": {"type": "Polygon", "coordinates": [[[2.7988698840241626, 41.96053499974613], [2.7987303582158987, 41.96072045468631], [2.798193744735185, 41.95945197797534], [2.7976660134663436, 41.958421224220146], [2.7951385504726916, 41.959120884500145], [2.794961309155351, 41.958996483446604], [2.792854242071833, 41.95965828051828], [2.7904076576162686, 41.96034009858314], [2.788998925973892, 41.96094830539235], [2.7883999103693524, 41.961206893316024], [2.7868912085195103, 41.96345270584063], [2.78575997993119, 41.96387899698822], [2.784624543924465, 41.96359438135047], [2.7844173048053507, 41.96396941061861], [2.784127140406684, 41.96449271225999], [2.783588064588094, 41.96426789468742], [2.7829739961198277, 41.965364055276], [2.787327715112943, 41.96681322666033], [2.7874964228962553, 41.967075088829816], [2.7874157140146383, 41.9674041697908], [2.7872302671875127, 41.96816122279139], [2.787159164213806, 41.968450463303796], [2.7871455609254427, 41.968505721663796], [2.787135926399443, 41.96854326522246], [2.7871242482440306, 41.968590647681566], [2.78698435502299, 41.96915767911639], [2.7869056695135215, 41.96949512550787], [2.7868162580423315, 41.96985100198666], [2.786799509255829, 41.96991738729632], [2.786763539073633, 41.97006066753757], [2.7867162282548756, 41.9702447462504], [2.7875373442230713, 41.970378768615696], [2.7876655608264462, 41.970399714269604], [2.7876980313973614, 41.97040500318591], [2.787955526080941, 41.9704471697537], [2.788382419480625, 41.97051955663614], [2.78848433951864, 41.970537111151096], [2.7886319703128337, 41.97056262315366], [2.7888978241586555, 41.970608145437616], [2.7889981783876854, 41.97062533761958], [2.7892973277387183, 41.97067732010781], [2.789464519761218, 41.970706360172336], [2.789588286721748, 41.970727839360535], [2.7896822715555, 41.97074474561111], [2.789900925049074, 41.9707841571223], [2.7901275716380605, 41.97082391446071], [2.790412337781648, 41.97087391681322], [2.7905971794128788, 41.97090681495125], [2.7906574411241545, 41.970708526957985], [2.79071840296288, 41.97050760646136], [2.790838981472115, 41.97013667299018], [2.790954565870587, 41.96977379320395], [2.7910115743906245, 41.96959135997292], [2.7911730213666495, 41.96907406210483], [2.792851324757777, 41.96927441461793], [2.793097285777943, 41.96826444045756], [2.793270658531964, 41.96755251598683], [2.7937806140089285, 41.96730596795436], [2.794099792351719, 41.967165953521906], [2.7946263657167387, 41.966920165247465], [2.794871021416252, 41.96680297717122], [2.795444333972878, 41.96665008828801], [2.7958763725217732, 41.966628203477335], [2.797134364461256, 41.966564470847466], [2.7979389819124894, 41.966428429548536], [2.799023146891613, 41.96627821516112], [2.7994517280230085, 41.96621838354498], [2.799906584122177, 41.96616674595984], [2.8005130586917577, 41.96609789333605], [2.800684943506625, 41.96608917909789], [2.8006430025203968, 41.96597430739199], [2.8004647524119552, 41.964430529873724], [2.8003789431668746, 41.96326464469089], [2.7992215326950816, 41.962805688593726], [2.7987192902212445, 41.962439590763765], [2.79902519760726, 41.96093877596784], [2.7988698840241626, 41.96053499974613]]]}}, {"type": "Feature", "properties": {"CUSEC": "1715502001", "CDIS": "02", "CSEC": "001", "codi": "02-001", "ist_2023": 60.7, "ist_2024p": 61.5, "serie": {"2015": 62.8, "2016": 62.7, "2017": 63.7, "2018": 61.7, "2019": 64.4, "2020": 64.2, "2021": 63.1, "2022": 61.0, "2023": 60.7, "2024": 61.5}, "lx": 2.794018, "ly": 41.97426, "dist_cap_centroide_m": 184}, "geometry": {"type": "Polygon", "coordinates": [[[2.7971777444340233, 41.97372948188597], [2.7972299893269517, 41.97351874665216], [2.797225007248081, 41.97351801788987], [2.7970462511873757, 41.973491852783134], [2.7967104104251934, 41.97343403982896], [2.7963387453547606, 41.973371073365], [2.7958490969742806, 41.9732881634172], [2.795251867579365, 41.97318677456135], [2.7950951874824193, 41.97316180164038], [2.794104979877886, 41.97300376696976], [2.79395605680907, 41.97300677802778], [2.793943355218816, 41.973004599161065], [2.7937185338766426, 41.97296571132827], [2.7936918805571205, 41.97296107027316], [2.7934090092196446, 41.972912218096795], [2.792915885114465, 41.97282655840276], [2.792884653012931, 41.9729642129275], [2.792770901529886, 41.97346695032402], [2.7927500955034232, 41.97355896765961], [2.792730487580978, 41.973643863263455], [2.7927102937918904, 41.97373173573991], [2.7926364880320746, 41.97404997271713], [2.7925225676255927, 41.974503067736954], [2.792458038805192, 41.97477940832376], [2.7924516734326517, 41.97488457539925], [2.792405425404067, 41.97507938677432], [2.79239931074299, 41.975105342680166], [2.79237323643225, 41.975214974189], [2.792376147402436, 41.97529426383935], [2.792599809937585, 41.97532111890013], [2.793158005953448, 41.975405459906405], [2.793369898142233, 41.97543545245313], [2.793631459957848, 41.97547266043902], [2.7936837953902103, 41.97548006082694], [2.7938565540052975, 41.97550441945494], [2.7942136842199314, 41.97555469023919], [2.7943404926437028, 41.975572215800135], [2.794541954584014, 41.975600007717084], [2.7948101514454997, 41.97563599474573], [2.795316562604523, 41.9756990524489], [2.7958022693295512, 41.97576946342958], [2.796174083881755, 41.975823313133276], [2.7966378642548038, 41.9758897992816], [2.796791722257331, 41.97528733262044], [2.796807944000943, 41.97522287203605], [2.7968488875758704, 41.97506118008848], [2.796906378612998, 41.97483344020389], [2.796946361580423, 41.97466549109189], [2.7969645982817757, 41.974588720966665], [2.7970637456328866, 41.97418890976573], [2.7971205610686583, 41.97396032094014], [2.7971777444340233, 41.97372948188597]]]}}, {"type": "Feature", "properties": {"CUSEC": "1715502002", "CDIS": "02", "CSEC": "002", "codi": "02-002", "ist_2023": 48.6, "ist_2024p": 49.5, "serie": {"2015": 52.9, "2016": 52.8, "2017": 53.2, "2018": 50.6, "2019": 50.1, "2020": 50.5, "2021": 49.1, "2022": 49.2, "2023": 48.6, "2024": 49.5}, "lx": 2.797664, "ly": 41.975196, "dist_cap_centroide_m": 503}, "geometry": {"type": "Polygon", "coordinates": [[[2.7975839892478382, 41.97387153365573], [2.7971777444340233, 41.97372948188597], [2.7971205610686583, 41.97396032094014], [2.7970637456328866, 41.97418890976573], [2.7969645982817757, 41.974588720966665], [2.796946361580423, 41.97466549109189], [2.796906378612998, 41.97483344020389], [2.7968488875758704, 41.97506118008848], [2.796807944000943, 41.97522287203605], [2.796791722257331, 41.97528733262044], [2.7966378642548038, 41.9758897992816], [2.7967168742149005, 41.97590118850079], [2.79720082979681, 41.9759639360797], [2.797588211300508, 41.976016222686305], [2.7977309392279435, 41.97603548076777], [2.798143422443028, 41.97609150388214], [2.798432271453347, 41.97613088260696], [2.7986455672583688, 41.97616055106213], [2.7987942233834966, 41.97618116818515], [2.799225466949936, 41.97624162410712], [2.7994306656064687, 41.97627045024681], [2.799503407236365, 41.976280291869486], [2.799646216775672, 41.97629963881194], [2.7997162138673195, 41.976309214338755], [2.799912096888367, 41.97633615424566], [2.8003851095504086, 41.976389944150604], [2.800619581342015, 41.975908184783734], [2.8007303373817733, 41.97566629939439], [2.8008657700217596, 41.97538696177721], [2.800985499609541, 41.97517475130336], [2.800892258041808, 41.97516229706133], [2.8007901573483855, 41.975153727922745], [2.800683784686443, 41.97514881219293], [2.8005443884550343, 41.97513526171033], [2.8004120203596305, 41.97512841400103], [2.8004129910115605, 41.97512567953609], [2.7999159246673875, 41.97508682154715], [2.7999146920577664, 41.97508606936438], [2.799875819961369, 41.97506204795794], [2.7998280199518857, 41.975029813929716], [2.7997202139932353, 41.97502073277587], [2.798733893644034, 41.97493729876375], [2.7984369404387763, 41.974911924285685], [2.7984480977439503, 41.974859184028645], [2.798492822602756, 41.97452248732874], [2.7985422032273934, 41.97418320156915], [2.798407886701068, 41.974131475139984], [2.798213199085586, 41.974081481212046], [2.797822953407441, 41.973954990857884], [2.7975839892478382, 41.97387153365573]]]}}, {"type": "Feature", "properties": {"CUSEC": "1715502003", "CDIS": "02", "CSEC": "003", "codi": "02-003", "ist_2023": 61.1, "ist_2024p": 62.1, "serie": {"2015": 64.1, "2016": 64.5, "2017": 64.1, "2018": 62.7, "2019": 63.2, "2020": 60.9, "2021": 61.8, "2022": 60.6, "2023": 61.1, "2024": 62.1}, "lx": 2.798854, "ly": 41.977755, "dist_cap_centroide_m": 620}, "geometry": {"type": "Polygon", "coordinates": [[[2.80021302817034, 41.97849390873729], [2.8001940587693364, 41.97839806802525], [2.8001707492938923, 41.978019110190786], [2.8001609644785774, 41.97772719162502], [2.8001617798146325, 41.977551701337696], [2.8002234685847567, 41.97712248438787], [2.8002625274233957, 41.976810391050336], [2.8003326935482664, 41.9765153076813], [2.8003851095504086, 41.976389944150604], [2.799912096888367, 41.97633615424566], [2.7997162138673195, 41.976309214338755], [2.799646216775672, 41.97629963881194], [2.799503407236365, 41.976280291869486], [2.7994306656064687, 41.97627045024681], [2.799225466949936, 41.97624162410712], [2.7987942233834966, 41.97618116818515], [2.7986455672583688, 41.97616055106213], [2.798432271453347, 41.97613088260696], [2.798143422443028, 41.97609150388214], [2.7977309392279435, 41.97603548076777], [2.797588211300508, 41.976016222686305], [2.797587619975453, 41.97650257116206], [2.7975872793484426, 41.976769706140416], [2.797586733072886, 41.97721147420314], [2.797586520500884, 41.97743522270959], [2.797149791840754, 41.97744677532666], [2.7971139713921382, 41.97825807674765], [2.7972332231127544, 41.97849110486645], [2.7972309300563913, 41.97921287535811], [2.7972454379900396, 41.97921403512012], [2.797277978225663, 41.97914244538056], [2.7973404468822203, 41.97912737053024], [2.7974785248754674, 41.9791013204372], [2.7976450429371504, 41.97910717280032], [2.797745483252818, 41.97912351823237], [2.797935968255396, 41.979147209876295], [2.7982216189767346, 41.979199422081805], [2.7983779571680674, 41.97919864449845], [2.7985558297168853, 41.979153903014854], [2.7987290736117685, 41.97912845099675], [2.798962902939024, 41.979102308885686], [2.7990912314182643, 41.97907436821058], [2.7992318984064, 41.97907676477568], [2.799387804399621, 41.97907124392747], [2.7995190955335194, 41.97904077160277], [2.799622220324356, 41.97901648982061], [2.7996919067431265, 41.979010575371376], [2.7997542192226605, 41.979028852710506], [2.79986354360491, 41.979037601126024], [2.7999016723296646, 41.979040378895405], [2.7998888751858546, 41.97855353818192], [2.800011895007174, 41.97852860396706], [2.8001118424388354, 41.978504482828704], [2.80021302817034, 41.97849390873729]]]}}, {"type": "Feature", "properties": {"CUSEC": "1715502004", "CDIS": "02", "CSEC": "004", "codi": "02-004", "ist_2023": 73.2, "ist_2024p": 74.0, "serie": {"2015": 79.5, "2016": 79.5, "2017": 78.8, "2018": 78.4, "2019": 76.3, "2020": 76.5, "2021": 75.3, "2022": 73.1, "2023": 73.2, "2024": 74.0}, "lx": 2.793264, "ly": 41.971858, "dist_cap_centroide_m": 375}, "geometry": {"type": "Polygon", "coordinates": [[[2.793097285777943, 41.96826444045756], [2.792851324757777, 41.96927441461793], [2.7920235550867396, 41.972673042175956], [2.7924189651016142, 41.972740184939966], [2.792915885114465, 41.97282655840276], [2.7934090092196446, 41.972912218096795], [2.7936918805571205, 41.97296107027316], [2.7937185338766426, 41.97296571132827], [2.793943355218816, 41.973004599161065], [2.79395605680907, 41.97300677802778], [2.794104979877886, 41.97300376696976], [2.7950951874824193, 41.97316180164038], [2.795251867579365, 41.97318677456135], [2.7958490969742806, 41.9732881634172], [2.7963387453547606, 41.973371073365], [2.7967104104251934, 41.97343403982896], [2.7970462511873757, 41.973491852783134], [2.797225007248081, 41.97351801788987], [2.797521261293374, 41.97247673804749], [2.796104838333067, 41.972153789558284], [2.7942653855018516, 41.97170314163581], [2.794507305081097, 41.96984003526029], [2.794655324407289, 41.96875361521775], [2.7946802409901195, 41.968519519949034], [2.793097285777943, 41.96826444045756]]]}}, {"type": "Feature", "properties": {"CUSEC": "1715502005", "CDIS": "02", "CSEC": "005", "codi": "02-005", "ist_2023": 85.5, "ist_2024p": 84.8, "serie": {"2015": 92.2, "2016": 90.1, "2017": 89.1, "2018": 90.8, "2019": 90.4, "2020": 90.4, "2021": 87.2, "2022": 85.8, "2023": 85.5, "2024": 84.8}, "lx": 2.794924, "ly": 41.981793, "dist_cap_centroide_m": 773}, "geometry": {"type": "Polygon", "coordinates": [[[2.7996226980512815, 41.98329534362059], [2.799881744495235, 41.98271593242218], [2.799940360444851, 41.980511975371094], [2.7999016723296646, 41.979040378895405], [2.79986354360491, 41.979037601126024], [2.7997542192226605, 41.979028852710506], [2.7996919067431265, 41.979010575371376], [2.799622220324356, 41.97901648982061], [2.7995190955335194, 41.97904077160277], [2.799387804399621, 41.97907124392747], [2.7992318984064, 41.97907676477568], [2.7990912314182643, 41.97907436821058], [2.798962902939024, 41.979102308885686], [2.7987290736117685, 41.97912845099675], [2.7985558297168853, 41.979153903014854], [2.7983779571680674, 41.97919864449845], [2.7982216189767346, 41.979199422081805], [2.797935968255396, 41.979147209876295], [2.797745483252818, 41.97912351823237], [2.7976450429371504, 41.97910717280032], [2.7974785248754674, 41.9791013204372], [2.7973404468822203, 41.97912737053024], [2.797277978225663, 41.97914244538056], [2.7972454379900396, 41.97921403512012], [2.7972309300563913, 41.97921287535811], [2.7972332231127544, 41.97849110486645], [2.7971139713921382, 41.97825807674765], [2.797149791840754, 41.97744677532666], [2.797586520500884, 41.97743522270959], [2.797586733072886, 41.97721147420314], [2.7975872793484426, 41.976769706140416], [2.797587619975453, 41.97650257116206], [2.797588211300508, 41.976016222686305], [2.79720082979681, 41.9759639360797], [2.7967168742149005, 41.97590118850079], [2.7966378642548038, 41.9758897992816], [2.796174083881755, 41.975823313133276], [2.7958022693295512, 41.97576946342958], [2.795316562604523, 41.9756990524489], [2.7948101514454997, 41.97563599474573], [2.794541954584014, 41.975600007717084], [2.7943404926437028, 41.975572215800135], [2.7942136842199314, 41.97555469023919], [2.7938565540052975, 41.97550441945494], [2.7936837953902103, 41.97548006082694], [2.793631459957848, 41.97547266043902], [2.793369898142233, 41.97543545245313], [2.793158005953448, 41.975405459906405], [2.792599809937585, 41.97532111890013], [2.792376147402436, 41.97529426383935], [2.7922573900615335, 41.97576915940878], [2.7921970037830572, 41.976011406203895], [2.7921844151568145, 41.976062075924915], [2.792140838746786, 41.97623601164359], [2.792067100771102, 41.97653573703691], [2.7920168516015775, 41.97674090945382], [2.7921767487777243, 41.97678107636334], [2.792688161991151, 41.97689990213306], [2.7927483408056584, 41.97690508204638], [2.7925656691735385, 41.97725174703044], [2.7924360305214044, 41.97779182267581], [2.7923404315746736, 41.978425445274446], [2.7922806002226612, 41.97917157989182], [2.7919937171703384, 41.97994826435943], [2.79146897790808, 41.980355907972566], [2.79135979184321, 41.98035465294655], [2.7912111251553235, 41.98046899361397], [2.790762636148149, 41.98087277439366], [2.7905222313922504, 41.98103737440919], [2.7903316923045, 41.9811184702361], [2.790076310312558, 41.98118855687494], [2.7897035191449, 41.981231240643574], [2.789396753154055, 41.98122770984459], [2.78916118604968, 41.98123486604108], [2.789098607799525, 41.98131901249274], [2.788885339960734, 41.98150128936329], [2.788553267556104, 41.98185153592804], [2.787852380678568, 41.98263962972822], [2.7879661280700088, 41.98276725256634], [2.7879631156393825, 41.983015107898815], [2.787905813158855, 41.98322760029324], [2.7878407540486476, 41.983354743054065], [2.7878355880726184, 41.98385993606522], [2.7878797527181094, 41.983924390439746], [2.7880036286609475, 41.984022920746604], [2.7881292299919607, 41.984140417902736], [2.7880566304277976, 41.98432510421507], [2.788009452251672, 41.9845085035035], [2.7880113939606255, 41.98467036439644], [2.7879387936118363, 41.984855050684295], [2.7879196226505565, 41.98506561492147], [2.787871727788876, 41.98538800614595], [2.7894349957961473, 41.98541911216015], [2.791854448374882, 41.985421532441116], [2.793009721123834, 41.98542267236707], [2.7963473905657894, 41.98515007255898], [2.7980223722462707, 41.98486358572961], [2.7983670423358493, 41.984804633534445], [2.7992001513549383, 41.98424027555889], [2.7996226980512815, 41.98329534362059]]]}}, {"type": "Feature", "properties": {"CUSEC": "1715502006", "CDIS": "02", "CSEC": "006", "codi": "02-006", "ist_2023": 46.7, "ist_2024p": 47.2, "serie": {"2015": 55.2, "2016": 54.4, "2017": 53.5, "2018": 53.3, "2019": 52.3, "2020": 52.0, "2021": 48.6, "2022": 46.9, "2023": 46.7, "2024": 47.2}, "lx": 2.799087, "ly": 41.974401, "dist_cap_centroide_m": 578}, "geometry": {"type": "Polygon", "coordinates": [[[2.8013941562237643, 41.974291455250075], [2.8011430209391746, 41.9742513923941], [2.800745813274492, 41.974188025231506], [2.800770601514579, 41.9741181292687], [2.8004372846851115, 41.97405942439213], [2.800407835641799, 41.974054229919], [2.8002377505632143, 41.974024304082704], [2.799723592585822, 41.973936752790515], [2.7986765087524774, 41.973758597549825], [2.798667335131514, 41.97375714509576], [2.798638171190606, 41.97375215085501], [2.7985030352485847, 41.97372911988759], [2.7982867686560837, 41.97369198064995], [2.7979428028243585, 41.97363292679569], [2.797797847041449, 41.97360808363585], [2.7975360605149717, 41.97356351954954], [2.7972627063861983, 41.97352347030151], [2.7972299893269517, 41.97351874665216], [2.7971777444340233, 41.97372948188597], [2.7975839892478382, 41.97387153365573], [2.797822953407441, 41.973954990857884], [2.798213199085586, 41.974081481212046], [2.798407886701068, 41.974131475139984], [2.7985422032273934, 41.97418320156915], [2.798492822602756, 41.97452248732874], [2.7984480977439503, 41.974859184028645], [2.7984369404387763, 41.974911924285685], [2.798733893644034, 41.97493729876375], [2.7997202139932353, 41.97502073277587], [2.7998280199518857, 41.975029813929716], [2.799875819961369, 41.97506204795794], [2.7999146920577664, 41.97508606936438], [2.7999159246673875, 41.97508682154715], [2.8004129910115605, 41.97512567953609], [2.8004120203596305, 41.97512841400103], [2.8005443884550343, 41.97513526171033], [2.800683784686443, 41.97514881219293], [2.8007901573483855, 41.975153727922745], [2.800892258041808, 41.97516229706133], [2.800985499609541, 41.97517475130336], [2.80101416233975, 41.97513549470319], [2.8010689945481824, 41.97502961532403], [2.8011076708980185, 41.97494861255828], [2.8011590750675097, 41.9748051036513], [2.801220894375638, 41.97467481336064], [2.8012652203805906, 41.974504171635616], [2.801321609221569, 41.97441539596256], [2.8013789337160393, 41.97433688354773], [2.8013941562237643, 41.974291455250075]]]}}, {"type": "Feature", "properties": {"CUSEC": "1715502007", "CDIS": "02", "CSEC": "007", "codi": "02-007", "ist_2023": 90.5, "ist_2024p": 91.3, "serie": {"2015": 89.1, "2016": 87.3, "2017": 85.7, "2018": 87.7, "2019": 90.9, "2020": 91.9, "2021": 91.4, "2022": 91.6, "2023": 90.5, "2024": 91.3}, "lx": 2.798152, "ly": 41.969489, "dist_cap_centroide_m": 696}, "geometry": {"type": "Polygon", "coordinates": [[[2.801243319684123, 41.9704542596449], [2.8011611064689186, 41.97000788430304], [2.8022425973478975, 41.9697144726816], [2.8022370104264045, 41.9697031382166], [2.8014969079979752, 41.968201615787386], [2.8013400361044805, 41.9678833526672], [2.800684943506625, 41.96608917909789], [2.8005130586917577, 41.96609789333605], [2.799906584122177, 41.96616674595984], [2.7994517280230085, 41.96621838354498], [2.799023146891613, 41.96627821516112], [2.7979389819124894, 41.966428429548536], [2.797134364461256, 41.966564470847466], [2.7958763725217732, 41.966628203477335], [2.795444333972878, 41.96665008828801], [2.794871021416252, 41.96680297717122], [2.7946263657167387, 41.966920165247465], [2.794099792351719, 41.967165953521906], [2.7937806140089285, 41.96730596795436], [2.793270658531964, 41.96755251598683], [2.793097285777943, 41.96826444045756], [2.7946802409901195, 41.968519519949034], [2.794655324407289, 41.96875361521775], [2.794507305081097, 41.96984003526029], [2.7942653855018516, 41.97170314163581], [2.796104838333067, 41.972153789558284], [2.797521261293374, 41.97247673804749], [2.797225007248081, 41.97351801788987], [2.7972299893269517, 41.97351874665216], [2.7972627063861983, 41.97352347030151], [2.7975360605149717, 41.97356351954954], [2.797797847041449, 41.97360808363585], [2.7979428028243585, 41.97363292679569], [2.7982867686560837, 41.97369198064995], [2.7985030352485847, 41.97372911988759], [2.798638171190606, 41.97375215085501], [2.798667335131514, 41.97375714509576], [2.7986765087524774, 41.973758597549825], [2.799723592585822, 41.973936752790515], [2.8002377505632143, 41.974024304082704], [2.800407835641799, 41.974054229919], [2.8004372846851115, 41.97405942439213], [2.800770601514579, 41.9741181292687], [2.800745813274492, 41.974188025231506], [2.8011430209391746, 41.9742513923941], [2.801248134746599, 41.97370745983681], [2.8011129163896427, 41.973249307037804], [2.80092163012936, 41.97296862479074], [2.800959675691008, 41.972448592020655], [2.8009577044007443, 41.972413904287556], [2.8010022885645, 41.97241734102943], [2.8015501518503143, 41.97220339227592], [2.8015963012426064, 41.97219343116865], [2.8014866775096094, 41.971765550471055], [2.801484608694487, 41.971764291592955], [2.801243319684123, 41.9704542596449]]]}}]}