{"type": "FeatureCollection", "features": [{"type": "Feature", "properties": {"nom": "Salt (terme municipal, uni\u00f3 de seccions INE 2023)"}, "geometry": {"type": "Polygon", "coordinates": [[[2.7976660134663436, 41.958421224220146], [2.7951385504726916, 41.959120884500145], [2.794961309155351, 41.958996483446604], [2.792854242071833, 41.95965828051828], [2.7904076576162686, 41.96034009858314], [2.788998925973892, 41.96094830539235], [2.7883999103693524, 41.961206893316024], [2.7868912085195103, 41.96345270584063], [2.78575997993119, 41.96387899698822], [2.784624543924465, 41.96359438135047], [2.7844173048053507, 41.96396941061861], [2.784127140406684, 41.96449271225999], [2.783588064588094, 41.96426789468742], [2.7829739961198277, 41.965364055276], [2.7829445347981956, 41.96541664624889], [2.77979318291913, 41.964333674835984], [2.7777532871166635, 41.963635575743005], [2.7775005464781297, 41.96347086472235], [2.777359650671578, 41.96371527898398], [2.77731825725339, 41.96393458573434], [2.7775178568935908, 41.96419316880581], [2.777725693006823, 41.96440179635925], [2.777853485981231, 41.964684963887535], [2.7779474957296943, 41.96504605452142], [2.7778692263546616, 41.965309142769044], [2.7771832889281214, 41.966304103330984], [2.776848177917759, 41.96711367189936], [2.7766144217256707, 41.96768947337046], [2.776207776945728, 41.96771000306028], [2.7756409267945568, 41.96754045686341], [2.7752136537189664, 41.96733337510291], [2.774635810264174, 41.967042431746556], [2.77411621706761, 41.96671805995058], [2.773842276753277, 41.96662518091761], [2.7735878727444816, 41.96697337005715], [2.7732521365330562, 41.9673256634237], [2.7731820923787738, 41.96767979211281], [2.7730532539669874, 41.968436286485975], [2.772976735661543, 41.96895465200771], [2.772708335953198, 41.96894515627634], [2.7724222889733063, 41.9703879156713], [2.7725698520478987, 41.97042654532804], [2.7724955950030132, 41.9705723571018], [2.772485866405489, 41.97061283528685], [2.771934564327478, 41.9705586199273], [2.7679461884787915, 41.97016631908961], [2.7646981933014247, 41.96984844340782], [2.76402107073472, 41.96996357314582], [2.762813560821258, 41.97048352145428], [2.7603314870112863, 41.97091458646958], [2.7586808146986117, 41.971069732038195], [2.757313351733503, 41.97102150534829], [2.755998654020549, 41.970889652466276], [2.754008638606788, 41.9703595950545], [2.7537247381326586, 41.9706889403863], [2.756719252357288, 41.97194710695126], [2.757536482031853, 41.972288565992486], [2.7608920394470036, 41.97324488451652], [2.7621040558293415, 41.97384096902495], [2.7629863289537675, 41.9745256423925], [2.763251116937133, 41.975052457177654], [2.7647682650390717, 41.976353265140965], [2.7657382018522725, 41.977339626704605], [2.7663576497542506, 41.979117757858376], [2.769016222928621, 41.981297193807826], [2.7697501372549014, 41.98167428396333], [2.7713180825884285, 41.98180222116123], [2.772807249024337, 41.982258181926596], [2.7749141766443923, 41.98247592000961], [2.7767106857820987, 41.98339339002212], [2.7826183402103264, 41.98408421649514], [2.782685414848764, 41.98409205796842], [2.783429858613237, 41.98417908759746], [2.7836716739079543, 41.98427603658895], [2.786370899895752, 41.98535812162582], [2.787871727788876, 41.98538800614595], [2.7894349957961473, 41.98541911216015], [2.791854448374882, 41.985421532441116], [2.793009721123834, 41.98542267236707], [2.7963473905657894, 41.98515007255898], [2.7980223722462707, 41.98486358572961], [2.7983670423358493, 41.984804633534445], [2.7992001513549383, 41.98424027555889], [2.7996226980512815, 41.98329534362059], [2.799881744495235, 41.98271593242218], [2.799940360444851, 41.980511975371094], [2.7999016723296646, 41.979040378895405], [2.7998888751858546, 41.97855353818192], [2.800011895007174, 41.97852860396706], [2.8001118424388354, 41.978504482828704], [2.80021302817034, 41.97849390873729], [2.8001940587693364, 41.97839806802525], [2.8001707492938923, 41.978019110190786], [2.8001609644785774, 41.97772719162502], [2.8001617798146325, 41.977551701337696], [2.8002234685847567, 41.97712248438787], [2.8002625274233957, 41.976810391050336], [2.8003326935482664, 41.9765153076813], [2.8003851095504086, 41.976389944150604], [2.800619581342015, 41.975908184783734], [2.8007303373817733, 41.97566629939439], [2.8008657700217596, 41.97538696177721], [2.800985499609541, 41.97517475130336], [2.80101416233975, 41.97513549470319], [2.8010689945481824, 41.97502961532403], [2.8011076708980185, 41.97494861255828], [2.8011590750675097, 41.9748051036513], [2.801220894375638, 41.97467481336064], [2.8012652203805906, 41.974504171635616], [2.801321609221569, 41.97441539596256], [2.8013789337160393, 41.97433688354773], [2.8013941562237643, 41.974291455250075], [2.8011430209391746, 41.9742513923941], [2.801248134746599, 41.97370745983681], [2.8011129163896427, 41.973249307037804], [2.80092163012936, 41.97296862479074], [2.800959675691008, 41.972448592020655], [2.8009577044007443, 41.972413904287556], [2.8010022885645, 41.97241734102943], [2.8015501518503143, 41.97220339227592], [2.8015963012426064, 41.97219343116865], [2.8014866775096094, 41.971765550471055], [2.801484608694487, 41.971764291592955], [2.801243319684123, 41.9704542596449], [2.8011611064689186, 41.97000788430304], [2.8022425973478975, 41.9697144726816], [2.8022370104264045, 41.9697031382166], [2.8014969079979752, 41.968201615787386], [2.8013400361044805, 41.9678833526672], [2.800684943506625, 41.96608917909789], [2.8006430025203968, 41.96597430739199], [2.8004647524119552, 41.964430529873724], [2.8003789431668746, 41.96326464469089], [2.7992215326950816, 41.962805688593726], [2.7987192902212445, 41.962439590763765], [2.79902519760726, 41.96093877596784], [2.7988698840241626, 41.96053499974613], [2.7987303582158987, 41.96072045468631], [2.798193744735185, 41.95945197797534], [2.7976660134663436, 41.958421224220146]]]}}]}