{"type": "FeatureCollection", "features": [{"type": "Feature", "properties": {"zona": "Proximitat CAP Salt 1 (NO oficial)"}, "geometry": {"type": "MultiPolygon", "coordinates": [[[[2.8008355, 41.9640294], [2.8008194330281575, 41.963963295887275], [2.8007692310931684, 41.96399985419503], [2.8008355, 41.9640294]]], [[[2.776485, 41.9830954], [2.7782612, 41.9834413], [2.7798291, 41.9836483], [2.7817772, 41.9839054], [2.7831004, 41.9842182], [2.7836214, 41.9841749], [2.7865704, 41.9850383], [2.7884177, 41.9854087], [2.7891488, 41.9856144], [2.7913705, 41.9856593], [2.7923667, 41.985783], [2.7930563, 41.9857104], [2.7948812, 41.9855183], [2.7961061, 41.9853941], [2.797821, 41.9852202], [2.798688, 41.9848216], [2.7999434, 41.9836815], [2.8001188, 41.9804569], [2.8001295, 41.9786101], [2.8001253, 41.97851], [2.8000945, 41.9777811], [2.800317, 41.9764204], [2.8003345, 41.9763854], [2.8009319, 41.9751874], [2.8010776, 41.9749851], [2.8011155, 41.9748991], [2.8010794, 41.9744164], [2.8010841, 41.9743272], [2.8011485, 41.9740833], [2.8011709, 41.9739949], [2.8006716, 41.972556], [2.800388, 41.9719204], [2.8011266, 41.9717812], [2.800803, 41.9700242], [2.8018844, 41.9697308], [2.8009819, 41.9678997], [2.8002849, 41.9659906], [2.8006675, 41.964498], [2.8006318, 41.9642521], [2.800579057611182, 41.96413834329275], [2.7750659389572627, 41.982717635976364], [2.776485, 41.9830954]]]]}}, {"type": "Feature", "properties": {"zona": "Proximitat CAP Salt 2 (NO oficial)"}, "geometry": {"type": "Polygon", "coordinates": [[[2.8008075, 41.9639142], [2.8007311, 41.9637861], [2.8008311, 41.9636876], [2.8006947, 41.9636275], [2.7999581, 41.9634382], [2.7996448, 41.9633461], [2.7994825, 41.9632979], [2.7993431, 41.9632165], [2.7991856, 41.9631179], [2.7990706, 41.9630222], [2.7988635, 41.962822], [2.799071, 41.9622614], [2.7990414, 41.9619196], [2.7988529, 41.9608919], [2.7977038, 41.9584281], [2.7951287, 41.9591386], [2.793922, 41.959475], [2.7917992, 41.960018], [2.7900801, 41.9603791], [2.7881267, 41.9612285], [2.7864517, 41.9637335], [2.7852633, 41.964035], [2.784986, 41.9638898], [2.7846302, 41.9637318], [2.7845035, 41.963679], [2.783769, 41.964509], [2.7835325, 41.9644197], [2.7825864, 41.9654329], [2.7775402, 41.9637015], [2.7773952, 41.9636518], [2.7774094, 41.9638889], [2.7776847, 41.9642905], [2.777986, 41.9647441], [2.77802, 41.9649772], [2.7779908, 41.9651746], [2.7778825, 41.9654199], [2.7772984, 41.9662678], [2.7769642, 41.9668432], [2.7768359, 41.9673477], [2.7767323, 41.9677268], [2.7765746, 41.9677941], [2.7761967, 41.9677218], [2.7756858, 41.9675867], [2.775178, 41.9673435], [2.7745181, 41.9670363], [2.7741429, 41.9667538], [2.7739139, 41.9665761], [2.7733442, 41.96731], [2.7732101, 41.9676081], [2.7730136, 41.9693373], [2.7729374, 41.9694177], [2.7727228, 41.9700787], [2.7724579, 41.9706615], [2.7717191, 41.9705664], [2.7711384, 41.970532], [2.7702879, 41.9703506], [2.7694874, 41.970179], [2.76434, 41.9698646], [2.7636629, 41.9699797], [2.7623684, 41.9703357], [2.7599733, 41.9709307], [2.7583226, 41.9710858], [2.7576672, 41.9711247], [2.7569189, 41.9710766], [2.7549849, 41.970742], [2.7547882, 41.9710427], [2.7571782, 41.9723047], [2.7605338, 41.973261], [2.7617458, 41.9738571], [2.7626281, 41.9745418], [2.7628929, 41.9750686], [2.76441, 41.9763694], [2.7653799, 41.9773558], [2.7661405, 41.9785679], [2.7663818, 41.9794596], [2.7671697, 41.9804991], [2.7680853, 41.9812114], [2.7689439, 41.9817724], [2.7702715, 41.9821717], [2.7724719, 41.9821295], [2.7733521, 41.9822614], [2.7750659389572627, 41.982717635976364], [2.800579057611182, 41.96413834329275], [2.8005572, 41.9640912], [2.8003903, 41.9640273], [2.8004052, 41.9639842], [2.8004939, 41.9639778], [2.8005939, 41.9639775], [2.800685, 41.9639623], [2.8007692310931684, 41.96399985419503], [2.8008194330281575, 41.963963295887275], [2.8008075, 41.9639142]]]}}]}